{"type": "FeatureCollection", "features": [ {"type": "Feature", "properties": {"norad_id": 67069, "name": "XIWANG-5 02", "group": "last-30-days", "lat": -37.85708668455888, "lon": 2.5776688791414712, "alt_km": 526.0446405833873, "timestamp": "2025-12-19T04:59:47.034232+00:00", "meta": {"OBJECT_NAME": "XIWANG-5 02", "OBJECT_ID": "2025-296A", "EPOCH": "2025-12-18T15:04:26.717664", "MEAN_MOTION": 15.16786899, "ECCENTRICITY": 0.00145165, "INCLINATION": 41.3526, "RA_OF_ASC_NODE": 67.983, "ARG_OF_PERICENTER": 66.6881, "MEAN_ANOMALY": 293.5466, "EPHEMERIS_TYPE": 0, "CLASSIFICATION_TYPE": "U", "NORAD_CAT_ID": 67069, "ELEMENT_SET_NO": 999, "REV_AT_EPOCH": 85, "BSTAR": 0.00051089156, "MEAN_MOTION_DOT": 0.00010064, "MEAN_MOTION_DDOT": 0}, "tle": {"line1": "1 67069U 25296A   25352.62808701  .00010064  00000+0  51089-3 0  9997", "line2": "2 67069  41.3526  67.9830 0014516  66.6881 293.5466 15.16786899   854"}}, "geometry": {"type": "Point", "coordinates": [2.5776688791414712, -37.85708668455888]}}, {"type": "Feature", "properties": {"norad_id": 67070, "name": "DEAR-5", "group": "last-30-days", "lat": -36.51254673937007, "lon": 7.3560932584605645, "alt_km": 526.1939173767805, "timestamp": "2025-12-19T04:59:47.034243+00:00", "meta": {"OBJECT_NAME": "DEAR-5", "OBJECT_ID": "2025-296B", "EPOCH": "2025-12-18T21:22:40.584000", "MEAN_MOTION": 15.16881688, "ECCENTRICITY": 0.00161284, "INCLINATION": 41.3554, "RA_OF_ASC_NODE": 66.4776, "ARG_OF_PERICENTER": 69.8039, "MEAN_ANOMALY": 290.4516, "EPHEMERIS_TYPE": 0, "CLASSIFICATION_TYPE": "U", "NORAD_CAT_ID": 67070, "ELEMENT_SET_NO": 999, "REV_AT_EPOCH": 88, "BSTAR": 0.00027339485, "MEAN_MOTION_DOT": 5.303e-05, "MEAN_MOTION_DDOT": 0}, "tle": {"line1": "1 67070U 25296B   25352.89074750  .00005303  00000+0  27339-3 0  9998", "line2": "2 67070  41.3554  66.4776 0016128  69.8039 290.4516 15.16881688   888"}}, "geometry": {"type": "Point", "coordinates": [7.3560932584605645, -36.51254673937007]}}, {"type": "Feature", "properties": {"norad_id": 67071, "name": "KZ-11 R/B", "group": "last-30-days", "lat": -15.176384584986312, "lon": -94.96393895141343, "alt_km": 999.1805664999501, "timestamp": "2025-12-19T04:59:47.034253+00:00", "meta": {"OBJECT_NAME": "KZ-11 R/B", "OBJECT_ID": "2025-296C", "EPOCH": "2025-12-18T15:12:04.764672", "MEAN_MOTION": 14.86885548, "ECCENTRICITY": 0.06788234, "INCLINATION": 41.3315, "RA_OF_ASC_NODE": 70.2352, "ARG_OF_PERICENTER": 355.0968, "MEAN_ANOMALY": 4.3428, "EPHEMERIS_TYPE": 0, "CLASSIFICATION_TYPE": "U", "NORAD_CAT_ID": 67071, "ELEMENT_SET_NO": 999, "REV_AT_EPOCH": 82, "BSTAR": 0.00050423781, "MEAN_MOTION_DOT": 0.05455497, "MEAN_MOTION_DDOT": 6.017039e-06}, "tle": {"line1": "1 67071U 25296C   25352.63338848  .05455497  60170-5  50424-3 0  9991", "line2": "2 67071  41.3315  70.2352 0678823 355.0968   4.3428 14.86885548   827"}}, "geometry": {"type": "Point", "coordinates": [-94.96393895141343, -15.176384584986312]}}, {"type": "Feature", "properties": {"norad_id": 67072, "name": "ELECTRON R/B", "group": "last-30-days", "lat": -39.50913315785106, "lon": -45.08263968686476, "alt_km": 181.9803459566292, "timestamp": "2025-12-19T04:59:47.034266+00:00", "meta": {"OBJECT_NAME": "ELECTRON R/B", "OBJECT_ID": "2025-297A", "EPOCH": "2025-12-18T23:31:59.697984", "MEAN_MOTION": 15.8746084, "ECCENTRICITY": 0.02031686, "INCLINATION": 97.473, "RA_OF_ASC_NODE": 140.8817, "ARG_OF_PERICENTER": 209.9305, "MEAN_ANOMALY": 149.0228, "EPHEMERIS_TYPE": 0, "CLASSIFICATION_TYPE": "U", "NORAD_CAT_ID": 67072, "ELEMENT_SET_NO": 999, "REV_AT_EPOCH": 77, "BSTAR": 0.0013492637, "MEAN_MOTION_DOT": 0.02338373, "MEAN_MOTION_DDOT": 2.219882e-06}, "tle": {"line1": "1 67072U 25297A   25352.98055206  .02338373  22199-5  13493-2 0  9998", "line2": "2 67072  97.4730 140.8817 0203168 209.9305 149.0228 15.87460840   774"}}, "geometry": {"type": "Point", "coordinates": [-45.08263968686476, -39.50913315785106]}}, {"type": "Feature", "properties": {"norad_id": 67073, "name": "RAISE-4", "group": "last-30-days", "lat": 14.46330420301074, "lon": 138.63963126506562, "alt_km": 544.0986797482237, "timestamp": "2025-12-19T04:59:47.034276+00:00", "meta": {"OBJECT_NAME": "RAISE-4", "OBJECT_ID": "2025-297B", "EPOCH": "2025-12-18T22:33:30.104928", "MEAN_MOTION": 15.07175759, "ECCENTRICITY": 0.001143, "INCLINATION": 97.4853, "RA_OF_ASC_NODE": 140.3222, "ARG_OF_PERICENTER": 298.2181, "MEAN_ANOMALY": 61.7893, "EPHEMERIS_TYPE": 0, "CLASSIFICATION_TYPE": "U", "NORAD_CAT_ID": 67073, "ELEMENT_SET_NO": 999, "REV_AT_EPOCH": 72, "BSTAR": 0.00024329515, "MEAN_MOTION_DOT": 3.604e-05, "MEAN_MOTION_DDOT": 0}, "tle": {"line1": "1 67073U 25297B   25352.93993177  .00003604  00000+0  24330-3 0  9990", "line2": "2 67073  97.4853 140.3222 0011430 298.2181  61.7893 15.07175759   725"}}, "geometry": {"type": "Point", "coordinates": [138.63963126506562, 14.46330420301074]}}, {"type": "Feature", "properties": {"norad_id": 67074, "name": "ELECTRON KICK STAGE R/B", "group": "last-30-days", "lat": 24.746868972069688, "lon": -35.56155196265055, "alt_km": 398.1625233442164, "timestamp": "2025-12-19T04:59:47.034286+00:00", "meta": {"OBJECT_NAME": "ELECTRON KICK STAGE R/B", "OBJECT_ID": "2025-297C", "EPOCH": "2025-12-18T22:08:24.035424", "MEAN_MOTION": 15.55950236, "ECCENTRICITY": 0.02023709, "INCLINATION": 97.4818, "RA_OF_ASC_NODE": 140.666, "ARG_OF_PERICENTER": 247.0267, "MEAN_ANOMALY": 110.9526, "EPHEMERIS_TYPE": 0, "CLASSIFICATION_TYPE": "U", "NORAD_CAT_ID": 67074, "ELEMENT_SET_NO": 999, "REV_AT_EPOCH": 74, "BSTAR": 0.0014293283, "MEAN_MOTION_DOT": 0.00258646, "MEAN_MOTION_DDOT": 1.9560874e-05}, "tle": {"line1": "1 67074U 25297C   25352.92250041  .00258646  19561-4  14293-2 0  9997", "line2": "2 67074  97.4818 140.6660 0202370 247.0267 110.9526 15.55950236   744"}}, "geometry": {"type": "Point", "coordinates": [-35.56155196265055, 24.746868972069688]}}, {"type": "Feature", "properties": {"norad_id": 67131, "name": "ZIYUAN 3-04 (ZY 3-04)", "group": "last-30-days", "lat": 46.30087785115232, "lon": 59.37369297435344, "alt_km": 494.38314118941526, "timestamp": "2025-12-19T04:59:47.034297+00:00", "meta": {"OBJECT_NAME": "ZIYUAN 3-04 (ZY 3-04)", "OBJECT_ID": "2025-300A", "EPOCH": "2025-12-16T05:54:33.890112", "MEAN_MOTION": 15.24627585, "ECCENTRICITY": 0.0011082, "INCLINATION": 97.5012, "RA_OF_ASC_NODE": 64.3338, "ARG_OF_PERICENTER": 268.6179, "MEAN_ANOMALY": 91.3789, "EPHEMERIS_TYPE": 0, "CLASSIFICATION_TYPE": "U", "NORAD_CAT_ID": 67131, "ELEMENT_SET_NO": 999, "REV_AT_EPOCH": 2, "BSTAR": 8.3268042e-05, "MEAN_MOTION_DOT": 1.984e-05, "MEAN_MOTION_DDOT": 0}, "tle": {"line1": "1 67131U 25300A   25350.24622558  .00001984  00000+0  83268-4 0  9999", "line2": "2 67131  97.5012  64.3338 0011082 268.6179  91.3789 15.24627585    26"}}, "geometry": {"type": "Point", "coordinates": [59.37369297435344, 46.30087785115232]}}, {"type": "Feature", "properties": {"norad_id": 67132, "name": "CZ-4B R/B", "group": "last-30-days", "lat": 61.13981861185953, "lon": -98.52608406632991, "alt_km": 409.96394433650585, "timestamp": "2025-12-19T04:59:47.034336+00:00", "meta": {"OBJECT_NAME": "CZ-4B R/B", "OBJECT_ID": "2025-300B", "EPOCH": "2025-12-18T16:13:04.609056", "MEAN_MOTION": 15.63831828, "ECCENTRICITY": 0.01741973, "INCLINATION": 97.5563, "RA_OF_ASC_NODE": 66.966, "ARG_OF_PERICENTER": 9.3582, "MEAN_ANOMALY": 351.0851, "EPHEMERIS_TYPE": 0, "CLASSIFICATION_TYPE": "U", "NORAD_CAT_ID": 67132, "ELEMENT_SET_NO": 999, "REV_AT_EPOCH": 40, "BSTAR": 0.00019566238, "MEAN_MOTION_DOT": 0.00040543, "MEAN_MOTION_DDOT": 2.652968e-06}, "tle": {"line1": "1 67132U 25300B   25352.67574779  .00040543  26530-5  19566-3 0  9995", "line2": "2 67132  97.5563  66.9660 0174197   9.3582 351.0851 15.63831828   407"}}, "geometry": {"type": "Point", "coordinates": [-98.52608406632991, 61.13981861185953]}}, {"type": "Feature", "properties": {"norad_id": 67160, "name": "GALILEO A", "group": "last-30-days", "lat": -43.99020352310535, "lon": 63.19029412022725, "alt_km": 22938.83170330146, "timestamp": "2025-12-19T04:59:47.034348+00:00", "meta": {"OBJECT_NAME": "GALILEO A", "OBJECT_ID": "2025-302A", "EPOCH": "2025-12-18T03:30:19.276416", "MEAN_MOTION": 1.72903353, "ECCENTRICITY": 0.00081342, "INCLINATION": 54.2386, "RA_OF_ASC_NODE": 107.2478, "ARG_OF_PERICENTER": 237.4124, "MEAN_ANOMALY": 122.4681, "EPHEMERIS_TYPE": 0, "CLASSIFICATION_TYPE": "U", "NORAD_CAT_ID": 67160, "ELEMENT_SET_NO": 999, "REV_AT_EPOCH": 2, "BSTAR": 0, "MEAN_MOTION_DOT": -7e-08, "MEAN_MOTION_DDOT": 0}, "tle": {"line1": "1 67160U 25302A   25352.14605644 -.00000007  00000+0  00000+0 0  9995", "line2": "2 67160  54.2386 107.2478 0008134 237.4124 122.4681  1.72903353    27"}}, "geometry": {"type": "Point", "coordinates": [63.19029412022725, -43.99020352310535]}}, {"type": "Feature", "properties": {"norad_id": 67161, "name": "GALILEO B", "group": "last-30-days", "lat": -43.738080511798685, "lon": 63.6293021119094, "alt_km": 22932.53635428975, "timestamp": "2025-12-19T04:59:47.034359+00:00", "meta": {"OBJECT_NAME": "GALILEO B", "OBJECT_ID": "2025-302B", "EPOCH": "2025-12-18T17:22:24.246336", "MEAN_MOTION": 1.72971576, "ECCENTRICITY": 0.00048165, "INCLINATION": 54.2288, "RA_OF_ASC_NODE": 107.2066, "ARG_OF_PERICENTER": 251.7259, "MEAN_ANOMALY": 108.1814, "EPHEMERIS_TYPE": 0, "CLASSIFICATION_TYPE": "U", "NORAD_CAT_ID": 67161, "ELEMENT_SET_NO": 999, "REV_AT_EPOCH": 4, "BSTAR": 0, "MEAN_MOTION_DOT": -6e-08, "MEAN_MOTION_DDOT": 0}, "tle": {"line1": "1 67161U 25302B   25352.72389174 -.00000006  00000+0  00000+0 0  9996", "line2": "2 67161  54.2288 107.2066 0004816 251.7259 108.1814  1.72971576    46"}}, "geometry": {"type": "Point", "coordinates": [63.6293021119094, -43.738080511798685]}}]}